{
  "type": "FeatureCollection",
  "features": [
    {
      "type": "Feature",
      "properties": {
        "OBJECT_NAME": "GSAT0220 (GALILEO 24)",
        "OBJECT_ID": "2018-060D",
        "EPOCH": "2025-11-28T12:39:42.035904",
        "MEAN_MOTION": 1.70475653,
        "ECCENTRICITY": 0.00060233,
        "INCLINATION": 57.2337,
        "RA_OF_ASC_NODE": 347.2076,
        "ARG_OF_PERICENTER": 280.1858,
        "MEAN_ANOMALY": 79.7898,
        "EPHEMERIS_TYPE": 0,
        "CLASSIFICATION_TYPE": "U",
        "NORAD_CAT_ID": 43567,
        "ELEMENT_SET_NO": 999,
        "REV_AT_EPOCH": 4575,
        "BSTAR": 0,
        "MEAN_MOTION_DOT": -5.5e-07,
        "MEAN_MOTION_DDOT": 0,
        "norad_id": 43567,
        "name": "GSAT0220 (GALILEO 24)",
        "group": "galileo",
        "longitude_deg": NaN,
        "latitude_deg": NaN,
        "alt_km": NaN,
        "orbit_class": "HEO",
        "timestamp": "2025-11-30T08:43:09.304128+00:00"
      },
      "geometry": {
        "type": "Point",
        "coordinates": [
          NaN,
          NaN
        ]
      }
    },
    {
      "type": "Feature",
      "properties": {
        "OBJECT_NAME": "GSAT0223 (GALILEO 27)",
        "OBJECT_ID": "2021-116A",
        "EPOCH": "2025-11-29T12:59:08.619936",
        "MEAN_MOTION": 1.70475693,
        "ECCENTRICITY": 0.0004721,
        "INCLINATION": 57.2226,
        "RA_OF_ASC_NODE": 347.071,
        "ARG_OF_PERICENTER": 247.1953,
        "MEAN_ANOMALY": 105.5315,
        "EPHEMERIS_TYPE": 0,
        "CLASSIFICATION_TYPE": "U",
        "NORAD_CAT_ID": 49809,
        "ELEMENT_SET_NO": 999,
        "REV_AT_EPOCH": 2477,
        "BSTAR": 0,
        "MEAN_MOTION_DOT": -5.5e-07,
        "MEAN_MOTION_DDOT": 0,
        "norad_id": 49809,
        "name": "GSAT0223 (GALILEO 27)",
        "group": "galileo",
        "longitude_deg": NaN,
        "latitude_deg": NaN,
        "alt_km": NaN,
        "orbit_class": "HEO",
        "timestamp": "2025-11-30T08:43:09.316792+00:00"
      },
      "geometry": {
        "type": "Point",
        "coordinates": [
          NaN,
          NaN
        ]
      }
    },
    {
      "type": "Feature",
      "properties": {
        "OBJECT_NAME": "GSAT0224 (GALILEO 28)",
        "OBJECT_ID": "2021-116B",
        "EPOCH": "2025-11-22T08:02:15.403200",
        "MEAN_MOTION": 1.70476295,
        "ECCENTRICITY": 0.00038769,
        "INCLINATION": 57.2249,
        "RA_OF_ASC_NODE": 347.264,
        "ARG_OF_PERICENTER": 247.2257,
        "MEAN_ANOMALY": 115.5015,
        "EPHEMERIS_TYPE": 0,
        "CLASSIFICATION_TYPE": "U",
        "NORAD_CAT_ID": 49810,
        "ELEMENT_SET_NO": 999,
        "REV_AT_EPOCH": 2468,
        "BSTAR": 0,
        "MEAN_MOTION_DOT": -6.8e-07,
        "MEAN_MOTION_DDOT": 0,
        "norad_id": 49810,
        "name": "GSAT0224 (GALILEO 28)",
        "group": "galileo",
        "longitude_deg": NaN,
        "latitude_deg": NaN,
        "alt_km": NaN,
        "orbit_class": "HEO",
        "timestamp": "2025-11-30T08:43:09.316799+00:00"
      },
      "geometry": {
        "type": "Point",
        "coordinates": [
          NaN,
          NaN
        ]
      }
    },
    {
      "type": "Feature",
      "properties": {
        "OBJECT_NAME": "GSAT0225 (GALILEO 29)",
        "OBJECT_ID": "2024-079A",
        "EPOCH": "2025-11-27T14:47:10.896576",
        "MEAN_MOTION": 1.70474678,
        "ECCENTRICITY": 0.00022731,
        "INCLINATION": 54.9919,
        "RA_OF_ASC_NODE": 106.7188,
        "ARG_OF_PERICENTER": 170.1061,
        "MEAN_ANOMALY": 186.2217,
        "EPHEMERIS_TYPE": 0,
        "CLASSIFICATION_TYPE": "U",
        "NORAD_CAT_ID": 59598,
        "ELEMENT_SET_NO": 999,
        "REV_AT_EPOCH": 987,
        "BSTAR": 0,
        "MEAN_MOTION_DOT": 5.3e-07,
        "MEAN_MOTION_DDOT": 0,
        "norad_id": 59598,
        "name": "GSAT0225 (GALILEO 29)",
        "group": "galileo",
        "longitude_deg": NaN,
        "latitude_deg": NaN,
        "alt_km": NaN,
        "orbit_class": "HEO",
        "timestamp": "2025-11-30T08:43:09.352205+00:00"
      },
      "geometry": {
        "type": "Point",
        "coordinates": [
          NaN,
          NaN
        ]
      }
    },
    {
      "type": "Feature",
      "properties": {
        "OBJECT_NAME": "GSAT0227 (GALILEO 30)",
        "OBJECT_ID": "2024-079C",
        "EPOCH": "2025-11-28T09:24:34.507584",
        "MEAN_MOTION": 1.70474627,
        "ECCENTRICITY": 0.00035247,
        "INCLINATION": 54.9877,
        "RA_OF_ASC_NODE": 106.6957,
        "ARG_OF_PERICENTER": 113.0968,
        "MEAN_ANOMALY": 246.9214,
        "EPHEMERIS_TYPE": 0,
        "CLASSIFICATION_TYPE": "U",
        "NORAD_CAT_ID": 59600,
        "ELEMENT_SET_NO": 999,
        "REV_AT_EPOCH": 994,
        "BSTAR": 0,
        "MEAN_MOTION_DOT": 5.3e-07,
        "MEAN_MOTION_DDOT": 0,
        "norad_id": 59600,
        "name": "GSAT0227 (GALILEO 30)",
        "group": "galileo",
        "longitude_deg": NaN,
        "latitude_deg": NaN,
        "alt_km": NaN,
        "orbit_class": "HEO",
        "timestamp": "2025-11-30T08:43:09.352216+00:00"
      },
      "geometry": {
        "type": "Point",
        "coordinates": [
          NaN,
          NaN
        ]
      }
    },
    {
      "type": "Feature",
      "properties": {
        "OBJECT_NAME": "GSAT0232 (GALILEO 32)",
        "OBJECT_ID": "2024-167A",
        "EPOCH": "2025-11-29T15:16:36.414048",
        "MEAN_MOTION": 1.70473184,
        "ECCENTRICITY": 0.0002244,
        "INCLINATION": 55.2459,
        "RA_OF_ASC_NODE": 226.7912,
        "ARG_OF_PERICENTER": 216.1557,
        "MEAN_ANOMALY": 22.2275,
        "EPHEMERIS_TYPE": 0,
        "CLASSIFICATION_TYPE": "U",
        "NORAD_CAT_ID": 61182,
        "ELEMENT_SET_NO": 999,
        "REV_AT_EPOCH": 747,
        "BSTAR": 0,
        "MEAN_MOTION_DOT": 2.7e-07,
        "MEAN_MOTION_DDOT": 0,
        "norad_id": 61182,
        "name": "GSAT0232 (GALILEO 32)",
        "group": "galileo",
        "longitude_deg": NaN,
        "latitude_deg": NaN,
        "alt_km": NaN,
        "orbit_class": "HEO",
        "timestamp": "2025-11-30T08:43:09.359006+00:00"
      },
      "geometry": {
        "type": "Point",
        "coordinates": [
          NaN,
          NaN
        ]
      }
    },
    {
      "type": "Feature",
      "properties": {
        "OBJECT_NAME": "GSAT0226 (GALILEO 31)",
        "OBJECT_ID": "2024-167B",
        "EPOCH": "2025-11-26T08:32:06.516672",
        "MEAN_MOTION": 1.70473481,
        "ECCENTRICITY": 6.079e-05,
        "INCLINATION": 55.246,
        "RA_OF_ASC_NODE": 226.8867,
        "ARG_OF_PERICENTER": 154.246,
        "MEAN_ANOMALY": 343.2327,
        "EPHEMERIS_TYPE": 0,
        "CLASSIFICATION_TYPE": "U",
        "NORAD_CAT_ID": 61183,
        "ELEMENT_SET_NO": 999,
        "REV_AT_EPOCH": 739,
        "BSTAR": 0,
        "MEAN_MOTION_DOT": 3e-07,
        "MEAN_MOTION_DDOT": 0,
        "norad_id": 61183,
        "name": "GSAT0226 (GALILEO 31)",
        "group": "galileo",
        "longitude_deg": NaN,
        "latitude_deg": NaN,
        "alt_km": NaN,
        "orbit_class": "HEO",
        "timestamp": "2025-11-30T08:43:09.359014+00:00"
      },
      "geometry": {
        "type": "Point",
        "coordinates": [
          NaN,
          NaN
        ]
      }
    }
  ]
}