GSAT0220 (GALILEO 24)   
1 43567U 18060D   25332.52756986 -.00000055  00000+0  00000+0 0  9992
2 43567  57.2337 347.2076 0006023 280.1858  79.7898  1.70475653 45753
GSAT0223 (GALILEO 27)   
1 49809U 21116A   25333.54107199 -.00000055  00000+0  00000+0 0  9992
2 49809  57.2226 347.0710 0004721 247.1953 105.5315  1.70475693 24775
GSAT0224 (GALILEO 28)   
1 49810U 21116B   25326.33490050 -.00000068  00000+0  00000+0 0  9998
2 49810  57.2249 347.2640 0003876 247.2257 115.5015  1.70476295 24681
GSAT0225 (GALILEO 29)   
1 59598U 24079A   25331.61609834  .00000053  00000+0  00000+0 0  9995
2 59598  54.9919 106.7188 0002273 170.1061 186.2217  1.70474678  9871
GSAT0227 (GALILEO 30)   
1 59600U 24079C   25332.39206606  .00000053  00000+0  00000+0 0  9995
2 59600  54.9877 106.6957 0003524 113.0968 246.9214  1.70474627  9946
GSAT0232 (GALILEO 32)   
1 61182U 24167A   25333.63653257  .00000027  00000+0  00000+0 0  9998
2 61182  55.2459 226.7912 0002244 216.1557  22.2275  1.70473184  7471
GSAT0226 (GALILEO 31)   
1 61183U 24167B   25330.35563098  .00000030  00000+0  00000+0 0  9992
2 61183  55.2460 226.8867 0000607 154.2460 343.2327  1.70473481  7395
